ISS (ZARYA)             
1 25544U 98067A   26002.56507419  .00015753  00000+0  29291-3 0  9993
2 25544  51.6329  39.3546 0007530 331.9903  28.0679 15.49039326546088
CSS (TIANHE)            
1 48274U 21035A   26002.71819259  .00030283  00000+0  36461-3 0  9996
2 48274  41.4660 249.2667 0010311 206.2606 153.7711 15.60092745267304
ISS (NAUKA)             
1 49044U 21066A   26002.56507419  .00015753  00000+0  29291-3 0  9999
2 49044  51.6329  39.3546 0007530 331.9903  28.0679 15.49039326230449
FREGAT DEB              
1 49271U 11037PF  26002.61984908  .00028799  00000+0  61645-1 0  9997
2 49271  51.6430 137.6925 0873853 269.6055  80.4748 12.34901136204517
CSS (WENTIAN)           
1 53239U 22085A   26002.59016208  .00031075  00000+0  37412-3 0  9995
2 53239  41.4660 250.0449 0010295 205.4791 154.5541 15.60084598173848
CSS (MENGTIAN)          
1 54216U 22143A   26002.59016208  .00031075  00000+0  37412-3 0  9996
2 54216  41.4660 250.0449 0010295 205.4791 154.5541 15.60084598158645
SHENZHOU-20 (SZ-20)     
1 63632U 25082A   26002.59016208  .00031075  00000+0  37412-3 0  9993
2 63632  41.4660 250.0449 0010295 205.4791 154.5541 15.60084598255308
PROGRESS-MS 31          
1 64751U 25146A   26002.56507419  .00015753  00000+0  29291-3 0  9994
2 64751  51.6329  39.3546 0007530 331.9903  28.0679 15.49039326  6756
TIANZHOU-9              
1 64786U 25149A   26002.59016208  .00031075  00000+0  37412-3 0  9998
2 64786  41.4660 250.0449 0010295 205.4791 154.5541 15.60084598255309
CREW DRAGON 11          
1 65077U 25166A   26002.56507419  .00015753  00000+0  29291-3 0  9998
2 65077  51.6329  39.3546 0007530 331.9903  28.0679 15.49039326  2147
DRAGON CRS-33           
1 65304U 25186A   26002.56507419  .00015753  00000+0  29291-3 0  9993
2 65304  51.6329  39.3546 0007530 331.9903  28.0679 15.49039326   115
PROGRESS-MS 32          
1 65586U 25204A   26002.56507419  .00015753  00000+0  29291-3 0  9996
2 65586  51.6329  39.3546 0007530 331.9903  28.0679 15.49039326   274
