CCSDS_OMM_VERS = 2.0
CREATION_DATE  = 
ORIGINATOR     = 

OBJECT_NAME    = ISS (ZARYA)
OBJECT_ID      = 1998-067A
CENTER_NAME    = EARTH
REF_FRAME      = TEME
TIME_SYSTEM    = UTC
MEAN_ELEMENT_THEORY = SGP/SGP4

EPOCH          = 2026-01-02T13:33:42.410016
MEAN_MOTION    = 15.49039326
ECCENTRICITY   = .00075301
INCLINATION    = 51.6329
RA_OF_ASC_NODE = 39.3546
ARG_OF_PERICENTER = 331.9903
MEAN_ANOMALY   = 28.0679

EPHEMERIS_TYPE = 0
CLASSIFICATION_TYPE = U
NORAD_CAT_ID   = 25544
ELEMENT_SET_NO = 999
REV_AT_EPOCH   = 54608
BSTAR          = .29290778E-3
MEAN_MOTION_DOT = .15753E-3
MEAN_MOTION_DDOT = 0

CCSDS_OMM_VERS = 2.0
CREATION_DATE  = 
ORIGINATOR     = 

OBJECT_NAME    = CSS (TIANHE)
OBJECT_ID      = 2021-035A
CENTER_NAME    = EARTH
REF_FRAME      = TEME
TIME_SYSTEM    = UTC
MEAN_ELEMENT_THEORY = SGP/SGP4

EPOCH          = 2026-01-02T17:14:11.839776
MEAN_MOTION    = 15.60092745
ECCENTRICITY   = .0010311
INCLINATION    = 41.4660
RA_OF_ASC_NODE = 249.2667
ARG_OF_PERICENTER = 206.2606
MEAN_ANOMALY   = 153.7711

EPHEMERIS_TYPE = 0
CLASSIFICATION_TYPE = U
NORAD_CAT_ID   = 48274
ELEMENT_SET_NO = 999
REV_AT_EPOCH   = 26730
BSTAR          = .36461E-3
MEAN_MOTION_DOT = .30283E-3
MEAN_MOTION_DDOT = 0

CCSDS_OMM_VERS = 2.0
CREATION_DATE  = 
ORIGINATOR     = 

OBJECT_NAME    = ISS (NAUKA)
OBJECT_ID      = 2021-066A
CENTER_NAME    = EARTH
REF_FRAME      = TEME
TIME_SYSTEM    = UTC
MEAN_ELEMENT_THEORY = SGP/SGP4

EPOCH          = 2026-01-02T13:33:42.410016
MEAN_MOTION    = 15.49039326
ECCENTRICITY   = .00075301
INCLINATION    = 51.6329
RA_OF_ASC_NODE = 39.3546
ARG_OF_PERICENTER = 331.9903
MEAN_ANOMALY   = 28.0679

EPHEMERIS_TYPE = 0
CLASSIFICATION_TYPE = U
NORAD_CAT_ID   = 49044
ELEMENT_SET_NO = 999
REV_AT_EPOCH   = 23044
BSTAR          = .29290778E-3
MEAN_MOTION_DOT = .15753E-3
MEAN_MOTION_DDOT = 0

CCSDS_OMM_VERS = 2.0
CREATION_DATE  = 
ORIGINATOR     = 

OBJECT_NAME    = FREGAT DEB
OBJECT_ID      = 2011-037PF
CENTER_NAME    = EARTH
REF_FRAME      = TEME
TIME_SYSTEM    = UTC
MEAN_ELEMENT_THEORY = SGP/SGP4

EPOCH          = 2026-01-02T14:52:34.960512
MEAN_MOTION    = 12.34901136
ECCENTRICITY   = .08738534
INCLINATION    = 51.6430
RA_OF_ASC_NODE = 137.6925
ARG_OF_PERICENTER = 269.6055
MEAN_ANOMALY   = 80.4748

EPHEMERIS_TYPE = 0
CLASSIFICATION_TYPE = U
NORAD_CAT_ID   = 49271
ELEMENT_SET_NO = 999
REV_AT_EPOCH   = 20451
BSTAR          = .61645109E-1
MEAN_MOTION_DOT = .28799E-3
MEAN_MOTION_DDOT = 0

CCSDS_OMM_VERS = 2.0
CREATION_DATE  = 
ORIGINATOR     = 

OBJECT_NAME    = CSS (WENTIAN)
OBJECT_ID      = 2022-085A
CENTER_NAME    = EARTH
REF_FRAME      = TEME
TIME_SYSTEM    = UTC
MEAN_ELEMENT_THEORY = SGP/SGP4

EPOCH          = 2026-01-02T14:09:50.003712
MEAN_MOTION    = 15.60084598
ECCENTRICITY   = .00102952
INCLINATION    = 41.4660
RA_OF_ASC_NODE = 250.0449
ARG_OF_PERICENTER = 205.4791
MEAN_ANOMALY   = 154.5541

EPHEMERIS_TYPE = 0
CLASSIFICATION_TYPE = U
NORAD_CAT_ID   = 53239
ELEMENT_SET_NO = 999
REV_AT_EPOCH   = 17384
BSTAR          = .37412209E-3
MEAN_MOTION_DOT = .31075E-3
MEAN_MOTION_DDOT = 0

CCSDS_OMM_VERS = 2.0
CREATION_DATE  = 
ORIGINATOR     = 

OBJECT_NAME    = CSS (MENGTIAN)
OBJECT_ID      = 2022-143A
CENTER_NAME    = EARTH
REF_FRAME      = TEME
TIME_SYSTEM    = UTC
MEAN_ELEMENT_THEORY = SGP/SGP4

EPOCH          = 2026-01-02T14:09:50.003712
MEAN_MOTION    = 15.60084598
ECCENTRICITY   = .00102952
INCLINATION    = 41.4660
RA_OF_ASC_NODE = 250.0449
ARG_OF_PERICENTER = 205.4791
MEAN_ANOMALY   = 154.5541

EPHEMERIS_TYPE = 0
CLASSIFICATION_TYPE = U
NORAD_CAT_ID   = 54216
ELEMENT_SET_NO = 999
REV_AT_EPOCH   = 15864
BSTAR          = .37412209E-3
MEAN_MOTION_DOT = .31075E-3
MEAN_MOTION_DDOT = 0

CCSDS_OMM_VERS = 2.0
CREATION_DATE  = 
ORIGINATOR     = 

OBJECT_NAME    = SHENZHOU-20 (SZ-20)
OBJECT_ID      = 2025-082A
CENTER_NAME    = EARTH
REF_FRAME      = TEME
TIME_SYSTEM    = UTC
MEAN_ELEMENT_THEORY = SGP/SGP4

EPOCH          = 2026-01-02T14:09:50.003712
MEAN_MOTION    = 15.60084598
ECCENTRICITY   = .00102952
INCLINATION    = 41.4660
RA_OF_ASC_NODE = 250.0449
ARG_OF_PERICENTER = 205.4791
MEAN_ANOMALY   = 154.5541

EPHEMERIS_TYPE = 0
CLASSIFICATION_TYPE = U
NORAD_CAT_ID   = 63632
ELEMENT_SET_NO = 999
REV_AT_EPOCH   = 25530
BSTAR          = .37412209E-3
MEAN_MOTION_DOT = .31075E-3
MEAN_MOTION_DDOT = 0

CCSDS_OMM_VERS = 2.0
CREATION_DATE  = 
ORIGINATOR     = 

OBJECT_NAME    = PROGRESS-MS 31
OBJECT_ID      = 2025-146A
CENTER_NAME    = EARTH
REF_FRAME      = TEME
TIME_SYSTEM    = UTC
MEAN_ELEMENT_THEORY = SGP/SGP4

EPOCH          = 2026-01-02T13:33:42.410016
MEAN_MOTION    = 15.49039326
ECCENTRICITY   = .00075301
INCLINATION    = 51.6329
RA_OF_ASC_NODE = 39.3546
ARG_OF_PERICENTER = 331.9903
MEAN_ANOMALY   = 28.0679

EPHEMERIS_TYPE = 0
CLASSIFICATION_TYPE = U
NORAD_CAT_ID   = 64751
ELEMENT_SET_NO = 999
REV_AT_EPOCH   = 675
BSTAR          = .29290778E-3
MEAN_MOTION_DOT = .15753E-3
MEAN_MOTION_DDOT = 0

CCSDS_OMM_VERS = 2.0
CREATION_DATE  = 
ORIGINATOR     = 

OBJECT_NAME    = TIANZHOU-9
OBJECT_ID      = 2025-149A
CENTER_NAME    = EARTH
REF_FRAME      = TEME
TIME_SYSTEM    = UTC
MEAN_ELEMENT_THEORY = SGP/SGP4

EPOCH          = 2026-01-02T14:09:50.003712
MEAN_MOTION    = 15.60084598
ECCENTRICITY   = .00102952
INCLINATION    = 41.4660
RA_OF_ASC_NODE = 250.0449
ARG_OF_PERICENTER = 205.4791
MEAN_ANOMALY   = 154.5541

EPHEMERIS_TYPE = 0
CLASSIFICATION_TYPE = U
NORAD_CAT_ID   = 64786
ELEMENT_SET_NO = 999
REV_AT_EPOCH   = 25530
BSTAR          = .37412209E-3
MEAN_MOTION_DOT = .31075E-3
MEAN_MOTION_DDOT = 0

CCSDS_OMM_VERS = 2.0
CREATION_DATE  = 
ORIGINATOR     = 

OBJECT_NAME    = CREW DRAGON 11
OBJECT_ID      = 2025-166A
CENTER_NAME    = EARTH
REF_FRAME      = TEME
TIME_SYSTEM    = UTC
MEAN_ELEMENT_THEORY = SGP/SGP4

EPOCH          = 2026-01-02T13:33:42.410016
MEAN_MOTION    = 15.49039326
ECCENTRICITY   = .00075301
INCLINATION    = 51.6329
RA_OF_ASC_NODE = 39.3546
ARG_OF_PERICENTER = 331.9903
MEAN_ANOMALY   = 28.0679

EPHEMERIS_TYPE = 0
CLASSIFICATION_TYPE = U
NORAD_CAT_ID   = 65077
ELEMENT_SET_NO = 999
REV_AT_EPOCH   = 214
BSTAR          = .29290778E-3
MEAN_MOTION_DOT = .15753E-3
MEAN_MOTION_DDOT = 0

CCSDS_OMM_VERS = 2.0
CREATION_DATE  = 
ORIGINATOR     = 

OBJECT_NAME    = DRAGON CRS-33
OBJECT_ID      = 2025-186A
CENTER_NAME    = EARTH
REF_FRAME      = TEME
TIME_SYSTEM    = UTC
MEAN_ELEMENT_THEORY = SGP/SGP4

EPOCH          = 2026-01-02T13:33:42.410016
MEAN_MOTION    = 15.49039326
ECCENTRICITY   = .00075301
INCLINATION    = 51.6329
RA_OF_ASC_NODE = 39.3546
ARG_OF_PERICENTER = 331.9903
MEAN_ANOMALY   = 28.0679

EPHEMERIS_TYPE = 0
CLASSIFICATION_TYPE = U
NORAD_CAT_ID   = 65304
ELEMENT_SET_NO = 999
REV_AT_EPOCH   = 11
BSTAR          = .29290778E-3
MEAN_MOTION_DOT = .15753E-3
MEAN_MOTION_DDOT = 0

CCSDS_OMM_VERS = 2.0
CREATION_DATE  = 
ORIGINATOR     = 

OBJECT_NAME    = PROGRESS-MS 32
OBJECT_ID      = 2025-204A
CENTER_NAME    = EARTH
REF_FRAME      = TEME
TIME_SYSTEM    = UTC
MEAN_ELEMENT_THEORY = SGP/SGP4

EPOCH          = 2026-01-02T13:33:42.410016
MEAN_MOTION    = 15.49039326
ECCENTRICITY   = .00075301
INCLINATION    = 51.6329
RA_OF_ASC_NODE = 39.3546
ARG_OF_PERICENTER = 331.9903
MEAN_ANOMALY   = 28.0679

EPHEMERIS_TYPE = 0
CLASSIFICATION_TYPE = U
NORAD_CAT_ID   = 65586
ELEMENT_SET_NO = 999
REV_AT_EPOCH   = 27
BSTAR          = .29290778E-3
MEAN_MOTION_DOT = .15753E-3
MEAN_MOTION_DDOT = 0

